OBJECT_NAME,OBJECT_ID,EPOCH,MEAN_MOTION,ECCENTRICITY,INCLINATION,RA_OF_ASC_NODE,ARG_OF_PERICENTER,MEAN_ANOMALY,EPHEMERIS_TYPE,CLASSIFICATION_TYPE,NORAD_CAT_ID,ELEMENT_SET_NO,REV_AT_EPOCH,BSTAR,MEAN_MOTION_DOT,MEAN_MOTION_DDOT
BADR-5,2010-025A,2026-07-20T20:16:38.720640,1.00277191,.00057895,0.0348,141.6154,54.8965,76.7370,0,U,36592,999,5355,0,.154E-5,0
COMS 1,2010-032A,2026-07-20T11:08:17.286144,0.99166737,.00114442,4.8887,74.9552,15.1250,316.3410,0,U,36744,999,5141,0,-.193E-5,0
ARABSAT-5A,2010-032B,2026-07-20T20:16:38.720640,1.00270014,.00053739,0.1240,68.7714,56.4199,148.0721,0,U,36745,999,5898,0,.153E-5,0
ECHOSTAR 15,2010-034A,2026-07-20T14:16:32.907648,1.00273639,.00019737,0.0339,275.7308,188.1196,289.8566,0,U,36792,999,5865,0,-.2E-7,0
BEIDOU-2 IGSO-1,2010-036A,2026-07-19T14:08:33.404064,1.00262639,.00586524,54.3073,162.6674,225.1805,228.5775,0,U,36828,999,5842,0,-.97E-6,0
NILESAT 201,2010-037A,2026-07-20T19:56:21.206400,1.00271063,.00050333,0.0360,205.1676,289.1958,96.3201,0,U,36830,999,5871,0,-.58E-6,0
RASCOM-QAF 1R,2010-037B,2026-07-20T19:59:13.430976,1.00271760,.00061,0.0169,79.6223,30.4990,131.1765,0,U,36831,999,5864,0,.18E-6,0
AEHF-1 (USA 214),2010-039A,2026-07-20T20:16:38.720640,1.00278099,.00039627,8.3020,67.6082,37.7152,167.4976,0,U,36868,999,5399,0,.142E-5,0
XM-5,2010-053A,2026-07-20T17:42:21.340800,1.00270619,.00011265,0.0642,264.9611,320.3625,223.5743,0,U,37185,999,5782,0,-.23E-6,0
BSAT-3B,2010-056B,2026-07-20T21:54:13.976064,1.00271337,.00028189,0.0618,241.3575,295.4748,200.2443,0,U,37207,999,5243,0,-.35E-5,0
BEIDOU-2 G4,2010-057A,2026-07-20T20:43:57.305280,1.00272843,.00053534,3.7289,68.7401,185.2694,155.5497,0,U,37210,999,5762,0,-.115E-5,0
SKYTERRA 1,2010-061A,2026-07-20T16:04:05.326176,1.00272101,.00026662,5.1946,50.7994,28.8372,358.4880,0,U,37218,999,5753,0,-.122E-5,0
HYLAS 1,2010-065A,2026-07-20T18:27:04.695840,1.00644431,.00011692,5.7264,72.6034,136.6990,45.8116,0,U,37237,999,722,0,.112E-5,0
INTELSAT 17 (IS-17),2010-065B,2026-07-20T21:59:47.353056,1.00272873,.00025755,0.0121,98.1193,34.8751,201.6393,0,U,37238,999,5358,0,-.2E-7,0
BEIDOU-2 IGSO-2,2010-068A,2026-07-19T20:07:19.149312,1.00272665,.00570323,47.4862,271.4234,214.1385,222.1771,0,U,37256,999,5712,0,-.205E-5,0
EUTELSAT KA-SAT 9A,2010-069A,2026-07-20T14:52:59.414304,1.00272370,.0004599,0.0621,9.4261,138.6308,22.5685,0,U,37258,999,4434,0,.61E-6,0
HISPASAT 30W-5,2010-070A,2026-07-20T19:49:51.829248,1.00269758,.00058791,0.0399,105.9092,23.3995,76.7161,0,U,37264,999,5352,0,-.217E-5,0
KOREASAT 6,2010-070B,2026-07-20T12:57:38.833920,1.00271525,.000276,0.0214,81.2399,49.0684,162.3006,0,U,37265,999,5710,0,-.113E-5,0
BEIDOU-2 IGSO-3,2011-013A,2026-07-20T11:54:48.647232,1.00259464,.00357915,62.4540,39.8354,183.4623,359.8458,0,U,37384,999,5599,0,-.175E-5,0
INTELSAT 28 (IS-28),2011-016A,2026-07-20T22:49:35.118624,1.00271490,.00039355,1.8914,82.2146,42.5078,124.6817,0,U,37392,999,5362,0,-.226E-5,0
YAHSAT 1A,2011-016B,2026-07-20T21:55:55.223904,1.00271457,.00032205,0.0186,73.6965,41.0517,205.4057,0,U,37393,999,4274,0,.101E-5,0
SBIRS GEO-1 (USA 230),2011-019A,2026-07-20T18:30:26.872704,1.00271821,.00018713,4.6080,53.0900,62.2588,152.6074,0,U,37481,999,5573,0,.96E-6,0
TELSTAR 14R,2011-021A,2026-07-20T21:15:24.289056,0.98982188,.00080203,0.0980,84.9972,293.8673,148.7756,0,U,37602,999,5617,0,-.21E-6,0
GSAT-8,2011-022A,2026-07-20T21:56:40.151904,1.00271289,.00025284,2.2161,81.4145,152.0822,89.4270,0,U,37605,999,5355,0,.83E-6,0
ST-2,2011-022B,2026-07-20T20:23:29.266656,1.00267838,.00015386,0.0080,7.8156,129.3280,195.3606,0,U,37606,999,5561,0,-.211E-5,0
ZHONGXING-10,2011-026A,2026-07-20T15:14:47.552640,1.00273550,.0003585,1.1314,83.8236,22.3710,146.4163,0,U,37677,999,5533,0,-.19E-5,0
SES-3,2011-035A,2026-07-20T21:11:39.648192,1.00271959,.00022039,1.4116,82.7199,36.1974,34.6577,0,U,37748,999,5493,0,-.103E-5,0
KAZSAT-2,2011-035B,2026-07-20T18:40:20.993664,1.00272401,.00021001,0.0278,111.7986,57.6151,135.7384,0,U,37749,999,5373,0,-.198E-5,0
BEIDOU-2 IGSO-4,2011-038A,2026-07-20T22:56:02.094720,1.00278607,.01601312,54.6049,165.3724,231.4816,340.2900,0,U,37763,999,5498,0,-.24E-6,0
ASTRA 1N,2011-041A,2026-07-20T20:03:50.488128,1.00272772,.00059924,0.0648,21.5389,95.1950,142.0029,0,U,37775,999,4486,0,.119E-5,0
BSAT-3C (JCSAT-110R),2011-041B,2026-07-20T21:54:13.952736,1.00271624,.00002864,0.0263,322.6617,214.8119,199.7167,0,U,37776,999,5080,0,-.35E-5,0
PAKSAT-1R,2011-042A,2026-07-20T20:09:05.789376,1.00272063,.00031963,0.7741,84.2854,355.1911,199.3552,0,U,37779,999,5481,0,.153E-5,0
