BADR-5                  
1 36592U 10025A   26201.84489260  .00000154  00000+0  00000+0 0  9993
2 36592   0.0348 141.6154 0005789  54.8965  76.7370  1.00277191 53556
COMS 1                  
1 36744U 10032A   26201.46408896 -.00000193  00000+0  00000+0 0  9998
2 36744   4.8887  74.9552 0011444  15.1250 316.3410  0.99166737 51418
ARABSAT-5A              
1 36745U 10032B   26201.84489260  .00000153  00000+0  00000+0 0  9990
2 36745   0.1240  68.7714 0005373  56.4199 148.0721  1.00270014 58987
ECHOSTAR 15             
1 36792U 10034A   26201.59482532 -.00000002  00000+0  00000+0 0  9995
2 36792   0.0339 275.7308 0001973 188.1196 289.8566  1.00273639 58659
BEIDOU-2 IGSO-1         
1 36828U 10036A   26200.58927551 -.00000097  00000+0  00000+0 0  9994
2 36828  54.3073 162.6674 0058652 225.1805 228.5775  1.00262639 58426
NILESAT 201             
1 36830U 10037A   26201.83080100 -.00000058  00000+0  00000+0 0  9994
2 36830   0.0360 205.1676 0005033 289.1958  96.3201  1.00271063 58713
RASCOM-QAF 1R           
1 36831U 10037B   26201.83279434  .00000018  00000+0  00000+0 0  9990
2 36831   0.0169  79.6223 0006100  30.4990 131.1765  1.00271760 58641
AEHF-1 (USA 214)        
1 36868U 10039A   26201.84489260  .00000142  00000+0  00000+0 0  9991
2 36868   8.3020  67.6082 0003962  37.7152 167.4976  1.00278099 53992
XM-5                    
1 37185U 10053A   26201.73774700 -.00000023  00000+0  00000+0 0  9993
2 37185   0.0642 264.9611 0001126 320.3625 223.5743  1.00270619 57822
BSAT-3B                 
1 37207U 10056B   26201.91266176 -.00000350  00000+0  00000+0 0  9997
2 37207   0.0618 241.3575 0002818 295.4748 200.2443  1.00271337 52434
BEIDOU-2 G4             
1 37210U 10057A   26201.86385770 -.00000115  00000+0  00000+0 0  9997
2 37210   3.7289  68.7401 0005353 185.2694 155.5497  1.00272843 57624
SKYTERRA 1              
1 37218U 10061A   26201.66950609 -.00000122  00000+0  00000+0 0  9995
2 37218   5.1946  50.7994 0002666  28.8372 358.4880  1.00272101 57532
HYLAS 1                 
1 37237U 10065A   26201.76880435  .00000112  00000+0  00000+0 0  9998
2 37237   5.7264  72.6034 0001169 136.6990  45.8116  1.00644431  7220
INTELSAT 17 (IS-17)     
1 37238U 10065B   26201.91652029 -.00000002  00000+0  00000+0 0  9991
2 37238   0.0121  98.1193 0002575  34.8751 201.6393  1.00272873 53582
BEIDOU-2 IGSO-2         
1 37256U 10068A   26200.83841608 -.00000205  00000+0  00000+0 0  9992
2 37256  47.4862 271.4234 0057032 214.1385 222.1771  1.00272665 57126
EUTELSAT KA-SAT 9A      
1 37258U 10069A   26201.62013211  .00000061  00000+0  00000+0 0  9993
2 37258   0.0621   9.4261 0004599 138.6308  22.5685  1.00272370 44349
HISPASAT 30W-5          
1 37264U 10070A   26201.82629432 -.00000217  00000+0  00000+0 0  9996
2 37264   0.0399 105.9092 0005879  23.3995  76.7161  1.00269758 53522
KOREASAT 6              
1 37265U 10070B   26201.54003280 -.00000113  00000+0  00000+0 0  9998
2 37265   0.0214  81.2399 0002760  49.0684 162.3006  1.00271525 57104
BEIDOU-2 IGSO-3         
1 37384U 11013A   26201.49639638 -.00000175  00000+0  00000+0 0  9992
2 37384  62.4540  39.8354 0035791 183.4623 359.8458  1.00259464 55993
INTELSAT 28 (IS-28)     
1 37392U 11016A   26201.95110091 -.00000226  00000+0  00000+0 0  9999
2 37392   1.8914  82.2146 0003935  42.5078 124.6817  1.00271490 53627
YAHSAT 1A               
1 37393U 11016B   26201.91383361  .00000101  00000+0  00000+0 0  9999
2 37393   0.0186  73.6965 0003220  41.0517 205.4057  1.00271457 42740
SBIRS GEO-1 (USA 230)   
1 37481U 11019A   26201.77114436  .00000096  00000+0  00000+0 0  9992
2 37481   4.6080  53.0900 0001871  62.2588 152.6074  1.00271821 55735
TELSTAR 14R             
1 37602U 11021A   26201.88569779 -.00000021  00000+0  00000+0 0  9995
2 37602   0.0980  84.9972 0008020 293.8673 148.7756  0.98982188 56174
GSAT-8                  
1 37605U 11022A   26201.91435361  .00000083  00000+0  00000+0 0  9999
2 37605   2.2161  81.4145 0002528 152.0822  89.4270  1.00271289 53553
ST-2                    
1 37606U 11022B   26201.84964429 -.00000211  00000+0  00000+0 0  9998
2 37606   0.0080   7.8156 0001538 129.3280 195.3606  1.00267838 55613
ZHONGXING-10            
1 37677U 11026A   26201.63527260 -.00000190  00000+0  00000+0 0  9991
2 37677   1.1314  83.8236 0003585  22.3710 146.4163  1.00273550 55332
SES-3                   
1 37748U 11035A   26201.88309778 -.00000103  00000+0  00000+0 0  9993
2 37748   1.4116  82.7199 0002203  36.1974  34.6577  1.00271959 54934
KAZSAT-2                
1 37749U 11035B   26201.77802076 -.00000198  00000+0  00000+0 0  9995
2 37749   0.0278 111.7986 0002100  57.6151 135.7384  1.00272401 53736
BEIDOU-2 IGSO-4         
1 37763U 11038A   26201.95557980 -.00000024  00000+0  00000+0 0  9993
2 37763  54.6049 165.3724 0160131 231.4816 340.2900  1.00278607 54986
ASTRA 1N                
1 37775U 11041A   26201.83600102  .00000119  00000+0  00000+0 0  9996
2 37775   0.0648  21.5389 0005992  95.1950 142.0029  1.00272772 44869
BSAT-3C (JCSAT-110R)    
1 37776U 11041B   26201.91266149 -.00000350  00000+0  00000+0 0  9993
2 37776   0.0263 322.6617 0000286 214.8119 199.7167  1.00271624 50808
PAKSAT-1R               
1 37779U 11042A   26201.83965034  .00000153  00000+0  00000+0 0  9997
2 37779   0.7741  84.2854 0003196 355.1911 199.3552  1.00272063 54812
